40
VNUSAT-001
1 00001U 26001A   26001.00000000  .00000000  00000-0  00000-0 0  0013
2 00001  30.0000   0.0000 0000000   0.0000   0.0000 13.47122848000107
VNUSAT-002
1 00002U 26001A   26001.00000000  .00000000  00000-0  00000-0 0  0014
2 00002  30.0000   0.0000 0000000   0.0000  36.0000 13.47122848000107
VNUSAT-003
1 00003U 26001A   26001.00000000  .00000000  00000-0  00000-0 0  0015
2 00003  30.0000   0.0000 0000000   0.0000  72.0000 13.47122848000108
VNUSAT-004
1 00004U 26001A   26001.00000000  .00000000  00000-0  00000-0 0  0016
2 00004  30.0000   0.0000 0000000   0.0000 108.0000 13.47122848000109
VNUSAT-005
1 00005U 26001A   26001.00000000  .00000000  00000-0  00000-0 0  0017
2 00005  30.0000   0.0000 0000000   0.0000 144.0000 13.47122848000100
VNUSAT-006
1 00006U 26001A   26001.00000000  .00000000  00000-0  00000-0 0  0018
2 00006  30.0000   0.0000 0000000   0.0000 180.0000 13.47122848000101
VNUSAT-007
1 00007U 26001A   26001.00000000  .00000000  00000-0  00000-0 0  0019
2 00007  30.0000   0.0000 0000000   0.0000 216.0000 13.47122848000102
VNUSAT-008
1 00008U 26001A   26001.00000000  .00000000  00000-0  00000-0 0  0010
2 00008  30.0000   0.0000 0000000   0.0000 252.0000 13.47122848000103
VNUSAT-009
1 00009U 26001A   26001.00000000  .00000000  00000-0  00000-0 0  0011
2 00009  30.0000   0.0000 0000000   0.0000 288.0000 13.47122848000103
VNUSAT-010
1 00010U 26001A   26001.00000000  .00000000  00000-0  00000-0 0  0013
2 00010  30.0000   0.0000 0000000   0.0000 324.0000 13.47122848000106
VNUSAT-011
1 00011U 26001A   26001.00000000  .00000000  00000-0  00000-0 0  0014
2 00011  30.0000  90.0000 0000000   0.0000   9.0000 13.47122848000106
VNUSAT-012
1 00012U 26001A   26001.00000000  .00000000  00000-0  00000-0 0  0015
2 00012  30.0000  90.0000 0000000   0.0000  45.0000 13.47122848000107
VNUSAT-013
1 00013U 26001A   26001.00000000  .00000000  00000-0  00000-0 0  0016
2 00013  30.0000  90.0000 0000000   0.0000  81.0000 13.47122848000108
VNUSAT-014
1 00014U 26001A   26001.00000000  .00000000  00000-0  00000-0 0  0017
2 00014  30.0000  90.0000 0000000   0.0000 117.0000 13.47122848000109
VNUSAT-015
1 00015U 26001A   26001.00000000  .00000000  00000-0  00000-0 0  0018
2 00015  30.0000  90.0000 0000000   0.0000 153.0000 13.47122848000100
VNUSAT-016
1 00016U 26001A   26001.00000000  .00000000  00000-0  00000-0 0  0019
2 00016  30.0000  90.0000 0000000   0.0000 189.0000 13.47122848000100
VNUSAT-017
1 00017U 26001A   26001.00000000  .00000000  00000-0  00000-0 0  0010
2 00017  30.0000  90.0000 0000000   0.0000 225.0000 13.47122848000102
VNUSAT-018
1 00018U 26001A   26001.00000000  .00000000  00000-0  00000-0 0  0011
2 00018  30.0000  90.0000 0000000   0.0000 261.0000 13.47122848000103
VNUSAT-019
1 00019U 26001A   26001.00000000  .00000000  00000-0  00000-0 0  0012
2 00019  30.0000  90.0000 0000000   0.0000 297.0000 13.47122848000103
VNUSAT-020
1 00020U 26001A   26001.00000000  .00000000  00000-0  00000-0 0  0014
2 00020  30.0000  90.0000 0000000   0.0000 333.0000 13.47122848000106
VNUSAT-021
1 00021U 26001A   26001.00000000  .00000000  00000-0  00000-0 0  0015
2 00021  30.0000 180.0000 0000000   0.0000  18.0000 13.47122848000107
VNUSAT-022
1 00022U 26001A   26001.00000000  .00000000  00000-0  00000-0 0  0016
2 00022  30.0000 180.0000 0000000   0.0000  54.0000 13.47122848000108
VNUSAT-023
1 00023U 26001A   26001.00000000  .00000000  00000-0  00000-0 0  0017
2 00023  30.0000 180.0000 0000000   0.0000  90.0000 13.47122848000109
VNUSAT-024
1 00024U 26001A   26001.00000000  .00000000  00000-0  00000-0 0  0018
2 00024  30.0000 180.0000 0000000   0.0000 126.0000 13.47122848000100
VNUSAT-025
1 00025U 26001A   26001.00000000  .00000000  00000-0  00000-0 0  0019
2 00025  30.0000 180.0000 0000000   0.0000 162.0000 13.47122848000101
VNUSAT-026
1 00026U 26001A   26001.00000000  .00000000  00000-0  00000-0 0  0010
2 00026  30.0000 180.0000 0000000   0.0000 198.0000 13.47122848000101
VNUSAT-027
1 00027U 26001A   26001.00000000  .00000000  00000-0  00000-0 0  0011
2 00027  30.0000 180.0000 0000000   0.0000 234.0000 13.47122848000103
VNUSAT-028
1 00028U 26001A   26001.00000000  .00000000  00000-0  00000-0 0  0012
2 00028  30.0000 180.0000 0000000   0.0000 270.0000 13.47122848000104
VNUSAT-029
1 00029U 26001A   26001.00000000  .00000000  00000-0  00000-0 0  0013
2 00029  30.0000 180.0000 0000000   0.0000 306.0000 13.47122848000105
VNUSAT-030
1 00030U 26001A   26001.00000000  .00000000  00000-0  00000-0 0  0015
2 00030  30.0000 180.0000 0000000   0.0000 342.0000 13.47122848000107
VNUSAT-031
1 00031U 26001A   26001.00000000  .00000000  00000-0  00000-0 0  0016
2 00031  30.0000 270.0000 0000000   0.0000  27.0000 13.47122848000108
VNUSAT-032
1 00032U 26001A   26001.00000000  .00000000  00000-0  00000-0 0  0017
2 00032  30.0000 270.0000 0000000   0.0000  63.0000 13.47122848000109
VNUSAT-033
1 00033U 26001A   26001.00000000  .00000000  00000-0  00000-0 0  0018
2 00033  30.0000 270.0000 0000000   0.0000  99.0000 13.47122848000109
VNUSAT-034
1 00034U 26001A   26001.00000000  .00000000  00000-0  00000-0 0  0019
2 00034  30.0000 270.0000 0000000   0.0000 135.0000 13.47122848000101
VNUSAT-035
1 00035U 26001A   26001.00000000  .00000000  00000-0  00000-0 0  0010
2 00035  30.0000 270.0000 0000000   0.0000 171.0000 13.47122848000102
VNUSAT-036
1 00036U 26001A   26001.00000000  .00000000  00000-0  00000-0 0  0011
2 00036  30.0000 270.0000 0000000   0.0000 207.0000 13.47122848000103
VNUSAT-037
1 00037U 26001A   26001.00000000  .00000000  00000-0  00000-0 0  0012
2 00037  30.0000 270.0000 0000000   0.0000 243.0000 13.47122848000104
VNUSAT-038
1 00038U 26001A   26001.00000000  .00000000  00000-0  00000-0 0  0013
2 00038  30.0000 270.0000 0000000   0.0000 279.0000 13.47122848000104
VNUSAT-039
1 00039U 26001A   26001.00000000  .00000000  00000-0  00000-0 0  0014
2 00039  30.0000 270.0000 0000000   0.0000 315.0000 13.47122848000106
VNUSAT-040
1 00040U 26001A   26001.00000000  .00000000  00000-0  00000-0 0  0016
2 00040  30.0000 270.0000 0000000   0.0000 351.0000 13.47122848000108
